STARLINK-1730
1 46563U 20070AH  26090.83335647  .00118070  00000+0  22310-2 0  9995
2 46563  53.0307  16.7982 0002873  99.7277 271.2924 15.47556084  5937
